OBJECT_NAME,OBJECT_ID,EPOCH,MEAN_MOTION,ECCENTRICITY,INCLINATION,RA_OF_ASC_NODE,ARG_OF_PERICENTER,MEAN_ANOMALY,EPHEMERIS_TYPE,CLASSIFICATION_TYPE,NORAD_CAT_ID,ELEMENT_SET_NO,REV_AT_EPOCH,BSTAR,MEAN_MOTION_DOT,MEAN_MOTION_DDOT
STARLINK-36991,2026-039AB,2026-07-16T14:47:06.352800,15.27602313,.0000562,43.0034,40.6096,291.5733,68.5059,0,U,68011,999,2142,.59813E-3,.16245E-3,0
STARLINK-36936,2026-039AC,2026-07-16T20:52:37.315776,15.27584376,.0000856,43.0038,39.0549,268.8705,91.2048,0,U,68012,999,2146,.28894E-3,.7698E-4,0
STARLINK-36967,2026-039AD,2026-07-16T21:18:31.740768,15.27591500,.0001607,43.0041,39.2090,270.9086,89.1582,0,U,68013,999,2146,.35509E-3,.9525E-4,0
STARLINK-36985,2026-039AE,2026-07-16T14:41:32.753760,15.27593367,.0000511,42.9995,40.5499,73.5498,286.5409,0,U,68014,999,2142,.33239E-3,.89E-4,0
STARLINK-36335,2026-040A,2026-07-16T20:38:15.410976,15.33447437,.0002345,97.2824,146.0537,101.8103,258.3403,0,U,68015,999,2125,.25363E-3,.8123E-4,0
STARLINK-36923,2026-040B,2026-07-16T20:30:25.877088,15.33445387,.0002542,97.2832,146.0586,84.0148,276.1384,0,U,68016,999,2125,.26111E-3,.8364E-4,0
STARLINK-36568,2026-040C,2026-07-16T20:26:30.703200,15.33442758,.0002115,97.2826,146.0648,90.9152,269.2333,0,U,68017,999,2125,.30476E-3,.9776E-4,0
STARLINK-36930,2026-040D,2026-07-16T20:34:20.312256,15.33428819,.0002149,97.2837,146.0572,94.2596,265.8893,0,U,68018,999,2125,.15315E-3,.487E-4,0
STARLINK-36921,2026-040E,2026-07-16T20:18:41.073408,15.33439893,.0001776,97.2835,146.0722,93.4627,266.6819,0,U,68019,999,2125,.20716E-3,.6618E-4,0
STARLINK-36928,2026-040F,2026-07-16T20:22:36.014880,15.33450769,.000253,97.2824,146.0689,91.3221,268.8312,0,U,68020,999,2125,.35255E-3,.11326E-3,0
STARLINK-36858,2026-040G,2026-07-16T20:06:56.242080,15.33454423,.0002616,97.2821,146.0831,105.9740,254.1791,0,U,68021,999,2128,.26121E-3,.837E-4,0
STARLINK-36916,2026-040H,2026-07-16T20:14:45.820032,15.33428881,.0003341,97.2828,146.0683,76.0127,284.1487,0,U,68022,999,2125,.60519E-3,.19506E-3,0
STARLINK-36871,2026-040J,2026-07-16T20:10:51.047040,15.33453437,.0002619,97.2833,146.0802,107.5020,252.6509,0,U,68023,999,2125,.39046E-3,.12556E-3,0
STARLINK-36891,2026-040K,2026-07-16T20:03:01.172736,15.33450705,.0002315,97.2833,146.0860,98.3876,261.7630,0,U,68024,999,2125,.3992E-3,.12837E-3,0
STARLINK-36378,2026-040L,2026-07-16T19:55:11.460000,15.33447982,.0002323,97.2835,146.0934,83.0527,277.0980,0,U,68025,999,2125,.36618E-3,.11767E-3,0
STARLINK-36884,2026-040M,2026-07-16T19:59:06.457632,15.33448252,.0002243,97.2838,146.0902,86.9927,273.1573,0,U,68026,999,2125,.30556E-3,.9804E-4,0
STARLINK-36940,2026-040N,2026-07-16T20:42:10.382688,15.33441462,.0001671,97.2839,146.2053,92.8220,267.3214,0,U,68027,999,2126,.17597E-3,.5609E-4,0
STARLINK-36944,2026-040Q,2026-07-16T19:51:16.572096,15.33450506,.0002195,97.2851,146.0944,91.1517,268.9978,0,U,68029,999,2125,.38725E-3,.1245E-3,0
STARLINK-36942,2026-040R,2026-07-16T19:47:21.667776,15.33455194,.0002222,97.2826,146.1019,84.7728,275.3768,0,U,68030,999,2125,.5205E-3,.16772E-3,0
STARLINK-36913,2026-040S,2026-07-16T19:43:26.200128,15.33499627,.0001689,97.2840,146.1014,92.4214,267.7223,0,U,68031,999,2125,.82644E-3,.26746E-3,0
STARLINK-36935,2026-040T,2026-07-16T20:46:05.282688,15.33452677,.0002211,97.2829,146.2006,102.7083,257.4407,0,U,68032,999,2126,.3508E-3,.1127E-3,0
STARLINK-36947,2026-040U,2026-07-16T19:39:31.734720,15.33449597,.0001865,97.2830,146.1100,87.8593,272.2864,0,U,68033,999,2125,.35799E-3,.11502E-3,0
STARLINK-36939,2026-040V,2026-07-16T19:23:52.164096,15.33449852,.0002252,97.2840,146.1199,102.6629,257.4866,0,U,68034,999,2125,.35206E-3,.1131E-3,0
STARLINK-36943,2026-040W,2026-07-16T20:50:00.257856,15.33451191,.0002089,97.2829,146.1976,99.1060,261.0419,0,U,68035,999,2239,.33009E-3,.10599E-3,0
STARLINK-36906,2026-040X,2026-07-16T19:27:46.952640,15.33448335,.000213,97.2844,146.1148,104.7900,255.3578,0,U,68036,999,2125,.33421E-3,.10731E-3,0
STARLINK-36388,2026-040Y,2026-07-16T20:53:55.167360,15.33451288,.0002216,97.2833,146.1904,95.8010,264.3486,0,U,68037,999,2126,.32093E-3,.10302E-3,0
STARLINK-36895,2026-040Z,2026-07-16T19:31:42.000384,15.33452589,.0001916,97.2838,146.1173,95.6821,264.4640,0,U,68038,999,2125,.39459E-3,.12688E-3,0
STARLINK-36373,2026-040AA,2026-07-16T19:35:36.426048,15.33434773,.000181,97.2849,146.1074,86.8394,273.3056,0,U,68039,999,2125,.13827E-3,.439E-4,0
STARLINK-36711,2026-041A,2026-07-16T22:30:29.788992,15.34404042,.0001542,53.1578,166.2112,106.8683,253.2489,0,U,68040,999,2122,.24005E-3,.7744E-4,0
STARLINK-36825,2026-041B,2026-07-16T08:02:05.507808,15.34400554,.0001244,53.1574,168.8288,93.0314,267.0831,0,U,68041,999,2113,.26768E-3,.8679E-4,0
