[ {"name": "STARLINK-36991", "line1": "1 68011U 26039AB  26197.61604575  .00016245  00000+0  59813-3 0  9991", "line2": "2 68011  43.0034  40.6096 0000562 291.5733  68.5059 15.27602313 21422"}, {"name": "STARLINK-36936", "line1": "1 68012U 26039AC  26197.86987634  .00007698  00000+0  28894-3 0  9996", "line2": "2 68012  43.0038  39.0549 0000856 268.8705  91.2048 15.27584376 21467"}, {"name": "STARLINK-36967", "line1": "1 68013U 26039AD  26197.88786737  .00009525  00000+0  35509-3 0  9992", "line2": "2 68013  43.0041  39.2090 0001607 270.9086  89.1582 15.27591500 21462"}, {"name": "STARLINK-36985", "line1": "1 68014U 26039AE  26197.61218465  .00008900  00000+0  33239-3 0  9996", "line2": "2 68014  42.9995  40.5499 0000511  73.5498 286.5409 15.27593367 21424"}, {"name": "STARLINK-36335", "line1": "1 68015U 26040A   26197.85990059  .00008123  00000+0  25363-3 0  9997", "line2": "2 68015  97.2824 146.0537 0002345 101.8103 258.3403 15.33447437 21254"}, {"name": "STARLINK-36923", "line1": "1 68016U 26040B   26197.85446617  .00008364  00000+0  26111-3 0  9993", "line2": "2 68016  97.2832 146.0586 0002542  84.0148 276.1384 15.33445387 21256"}, {"name": "STARLINK-36568", "line1": "1 68017U 26040C   26197.85174425  .00009776  00000+0  30476-3 0  9996", "line2": "2 68017  97.2826 146.0648 0002115  90.9152 269.2333 15.33442758 21252"}, {"name": "STARLINK-36930", "line1": "1 68018U 26040D   26197.85717954  .00004870  00000+0  15315-3 0  9992", "line2": "2 68018  97.2837 146.0572 0002149  94.2596 265.8893 15.33428819 21252"}, {"name": "STARLINK-36921", "line1": "1 68019U 26040E   26197.84630872  .00006618  00000+0  20716-3 0  9998", "line2": "2 68019  97.2835 146.0722 0001776  93.4627 266.6819 15.33439893 21250"}, {"name": "STARLINK-36928", "line1": "1 68020U 26040F   26197.84902795  .00011326  00000+0  35255-3 0  9992", "line2": "2 68020  97.2824 146.0689 0002530  91.3221 268.8312 15.33450769 21255"}, {"name": "STARLINK-36858", "line1": "1 68021U 26040G   26197.83815095  .00008370  00000+0  26121-3 0  9995", "line2": "2 68021  97.2821 146.0831 0002616 105.9740 254.1791 15.33454423 21288"}, {"name": "STARLINK-36916", "line1": "1 68022U 26040H   26197.84358588  .00019506  00000+0  60519-3 0  9998", "line2": "2 68022  97.2828 146.0683 0003341  76.0127 284.1487 15.33428881 21255"}, {"name": "STARLINK-36871", "line1": "1 68023U 26040J   26197.84086860  .00012556  00000+0  39046-3 0  9999", "line2": "2 68023  97.2833 146.0802 0002619 107.5020 252.6509 15.33453437 21254"}, {"name": "STARLINK-36891", "line1": "1 68024U 26040K   26197.83543024  .00012837  00000+0  39920-3 0  9992", "line2": "2 68024  97.2833 146.0860 0002315  98.3876 261.7630 15.33450705 21259"}, {"name": "STARLINK-36378", "line1": "1 68025U 26040L   26197.82999375  .00011767  00000+0  36618-3 0  9998", "line2": "2 68025  97.2835 146.0934 0002323  83.0527 277.0980 15.33447982 21258"}, {"name": "STARLINK-36884", "line1": "1 68026U 26040M   26197.83271363  .00009804  00000+0  30556-3 0  9994", "line2": "2 68026  97.2838 146.0902 0002243  86.9927 273.1573 15.33448252 21250"}, {"name": "STARLINK-36940", "line1": "1 68027U 26040N   26197.86262017  .00005609  00000+0  17597-3 0  9993", "line2": "2 68027  97.2839 146.2053 0001671  92.8220 267.3214 15.33441462 21261"}, {"name": "STARLINK-36944", "line1": "1 68029U 26040Q   26197.82727514  .00012450  00000+0  38725-3 0  9997", "line2": "2 68029  97.2851 146.0944 0002195  91.1517 268.9978 15.33450506 21259"}, {"name": "STARLINK-36942", "line1": "1 68030U 26040R   26197.82455634  .00016772  00000+0  52050-3 0  9998", "line2": "2 68030  97.2826 146.1019 0002222  84.7728 275.3768 15.33455194 21257"}, {"name": "STARLINK-36913", "line1": "1 68031U 26040S   26197.82183102  .00026746  00000+0  82644-3 0  9991", "line2": "2 68031  97.2840 146.1014 0001689  92.4214 267.7223 15.33499627 21251"}, {"name": "STARLINK-36935", "line1": "1 68032U 26040T   26197.86533892  .00011270  00000+0  35080-3 0  9999", "line2": "2 68032  97.2829 146.2006 0002211 102.7083 257.4407 15.33452677 21267"}, {"name": "STARLINK-36947", "line1": "1 68033U 26040U   26197.81911730  .00011502  00000+0  35799-3 0  9991", "line2": "2 68033  97.2830 146.1100 0001865  87.8593 272.2864 15.33449597 21255"}, {"name": "STARLINK-36939", "line1": "1 68034U 26040V   26197.80824264  .00011310  00000+0  35206-3 0  9996", "line2": "2 68034  97.2840 146.1199 0002252 102.6629 257.4866 15.33449852 21253"}, {"name": "STARLINK-36943", "line1": "1 68035U 26040W   26197.86805854  .00010599  00000+0  33009-3 0  9994", "line2": "2 68035  97.2829 146.1976 0002089  99.1060 261.0419 15.33451191 22391"}, {"name": "STARLINK-36906", "line1": "1 68036U 26040X   26197.81096010  .00010731  00000+0  33421-3 0  9992", "line2": "2 68036  97.2844 146.1148 0002130 104.7900 255.3578 15.33448335 21255"}, {"name": "STARLINK-36388", "line1": "1 68037U 26040Y   26197.87077740  .00010302  00000+0  32093-3 0  9996", "line2": "2 68037  97.2833 146.1904 0002216  95.8010 264.3486 15.33451288 21261"}, {"name": "STARLINK-36895", "line1": "1 68038U 26040Z   26197.81368056  .00012688  00000+0  39459-3 0  9996", "line2": "2 68038  97.2838 146.1173 0001916  95.6821 264.4640 15.33452589 21256"}, {"name": "STARLINK-36373", "line1": "1 68039U 26040AA  26197.81639382  .00004390  00000+0  13827-3 0  9992", "line2": "2 68039  97.2849 146.1074 0001810  86.8394 273.3056 15.33434773 21254"}, {"name": "STARLINK-36711", "line1": "1 68040U 26041A   26197.93784478  .00007744  00000+0  24005-3 0  9991", "line2": "2 68040  53.1578 166.2112 0001542 106.8683 253.2489 15.34404042 21229"}, {"name": "STARLINK-36825", "line1": "1 68041U 26041B   26197.33478597  .00008679  00000+0  26768-3 0  9994", "line2": "2 68041  53.1574 168.8288 0001244  93.0314 267.0831 15.34400554 21133"}]